[{"OBJECT_NAME":"SKYKRAFT-1A","OBJECT_ID":"2023-001AX","EPOCH":"2026-03-09T17:03:19.828224","MEAN_MOTION":15.28083228,"ECCENTRICITY":0.00112767,"INCLINATION":97.3349,"RA_OF_ASC_NODE":127.629,"ARG_OF_PERICENTER":121.5092,"MEAN_ANOMALY":238.7251,"EPHEMERIS_TYPE":0,"CLASSIFICATION_TYPE":"U","NORAD_CAT_ID":55054,"ELEMENT_SET_NO":999,"REV_AT_EPOCH":17652,"BSTAR":0.0003006872,"MEAN_MOTION_DOT":8.177e-5,"MEAN_MOTION_DDOT":0},{"OBJECT_NAME":"STARLINK-36434","OBJECT_ID":"2026-002T","EPOCH":"2026-03-09T03:43:11.626752","MEAN_MOTION":15.27498947,"ECCENTRICITY":0.00011603,"INCLINATION":43.0012,"RA_OF_ASC_NODE":328.5885,"ARG_OF_PERICENTER":309.9605,"MEAN_ANOMALY":50.1144,"EPHEMERIS_TYPE":0,"CLASSIFICATION_TYPE":"U","NORAD_CAT_ID":67322,"ELEMENT_SET_NO":999,"REV_AT_EPOCH":1099,"BSTAR":0.0012314494,"MEAN_MOTION_DOT":0.00033696,"MEAN_MOTION_DDOT":0}]
