SKYKRAFT-1A             
1 55054U 23001AX  26068.71064616  .00008177  00000+0  30069-3 0  9991
2 55054  97.3349 127.6290 0011277 121.5092 238.7251 15.28083228176529
STARLINK-36434          
1 67322U 26002T   26068.15499568  .00033696  00000+0  12314-2 0  9998
2 67322  43.0012 328.5885 0001160 309.9605  50.1144 15.27498947 10991
